STARLINK-33924          
1 64149U 25112D   26185.85156685  .00008438  00000+0  58766-3 0  9998
2 64149  97.2828 235.2921 0001958 100.7096 259.4352 15.05672409 60939
STARLINK-34209          
1 64150U 25112E   26185.86819268  .00006653  00000+0  46425-3 0  9990
2 64150  97.2797 235.4217 0003112 118.3596 241.7946 15.05673552 60944
STARLINK-34338          
1 64151U 25112F   26185.85988691  .00006942  00000+0  48431-3 0  9997
2 64151  97.2832 235.4338 0002663 108.0682 252.0836 15.05671195 60945
STARLINK-34348          
1 64152U 25112G   26185.09561102  .00005468  00000+0  38242-3 0  9999
2 64152  97.2834 234.6350 0001354 114.7640 245.3728 15.05663416 60826
STARLINK-34345          
1 64153U 25112H   26185.41959525  .00006052  00000+0  42270-3 0  9992
2 64153  97.2883 234.9632 0000521 170.5293 189.5945 15.05674930 60874
STARLINK-33945          
1 64154U 25112J   26185.61125025  .00007357  00000+0  51297-3 0  9993
2 64154  97.2828 243.6429 0001505  93.9910 266.1490 15.05671159 61454
STARLINK-34346          
1 64155U 25112K   26185.40575517  .00005164  00000+0  36138-3 0  9997
2 64155  97.2828 234.9864 0001616 108.0608 252.0796 15.05665627 60877
STARLINK-34277          
1 64156U 25112L   26185.57188624  .00010828  00000+0  75295-3 0  9995
2 64156  97.2830 235.0665 0001773 113.4175 246.7239 15.05663186 60897
STARLINK-34343          
1 64157U 25112M   26185.37470845  .00025935  00000+0  18141-2 0  9994
2 64157  97.6075 236.3315 0015701 208.7731 151.2631 15.05158713 60847
STARLINK-34166          
1 64158U 25112N   26185.85433753  .00008136  00000+0  56688-3 0  9998
2 64158  97.2826 235.2948 0002037 130.0872 230.0534 15.05669069 60938
STARLINK-34344          
1 64159U 25112P   26185.38082486  .00005026  00000+0  35187-3 0  9996
2 64159  97.2822 234.8670 0001807 121.4403 238.7002 15.05665335 60869
STARLINK-34339          
1 64160U 25112Q   26185.09838003  .00004673  00000+0  32743-3 0  9992
2 64160  97.2835 234.6397 0001545 129.3194 230.8171 15.05663370 60825
STARLINK-34341          
1 64161U 25112R   26185.41406050  .00005685  00000+0  39741-3 0  9991
2 64161  97.2831 234.9781 0001893 115.6844 244.4579 15.05666699 60873
STARLINK-34317          
1 64162U 25112S   26185.86265450  .00008462  00000+0  58934-3 0  9999
2 64162  97.2834 235.4374 0001521 107.1286 253.0109 15.05670477 60947
STARLINK-34340          
1 64163U 25112T   26185.37528610  .00004913  00000+0  34404-3 0  9999
2 64163  97.2823 234.8750 0001170 134.9346 225.1976 15.05664590 60864
STARLINK-34263          
1 64164U 25112U   26185.10115043  .00004228  00000+0  29664-3 0  9994
2 64164  97.2832 234.6357 0002188 113.9361 246.2096 15.05664904 60822
STARLINK-33793          
1 64165U 25112V   26185.15930135  .00005354  00000+0  37453-3 0  9993
2 64165  97.2837 234.7106 0001220 108.8749 251.2612 15.05663803 60838
STARLINK-34313          
1 64166U 25112W   26185.41682817  .00005057  00000+0  35400-3 0  9994
2 64166  97.2830 234.9749 0001404 116.4679 243.6693 15.05665575 60874
STARLINK-34309          
1 64167U 25112X   26185.40852267  .00004715  00000+0  33033-3 0  9992
2 64167  97.2835 234.9857 0001403  94.0836 266.0552 15.05665660 60873
STARLINK-34303          
1 64168U 25112Y   26185.86542078  .00007714  00000+0  53785-3 0  9997
2 64168  97.2838 235.4374 0001253 107.2257 252.9108 15.05660744 60941
STARLINK-34175          
1 64169U 25112Z   26185.58296561  .00006611  00000+0  46141-3 0  9993
2 64169  97.2822 235.0518 0001341 104.2006 255.9371 15.05671779 60897
STARLINK-34177          
1 64170U 25113A   26185.64468845  .00039716  00000+0  12827-2 0  9994
2 64170  53.1568 267.0338 0001123  88.3436 271.7694 15.31751859 62982
STARLINK-34228          
1 64171U 25113B   26185.63068395  .00033583  00000+0  10875-2 0  9997
2 64171  53.1596 266.9403 0001209  89.0095 271.1045 15.31747538 62982
STARLINK-34233          
1 64172U 25113C   26185.61211209  .00035597  00000+0  11512-2 0  9996
2 64172  53.1592 267.5346 0001962  81.2404 278.8820 15.31760489 62970
STARLINK-34172          
1 64173U 25113D   26185.49551672  .00044881  00000+0  14466-2 0  9991
2 64173  53.1598 267.5183 0001571  99.1105 261.0074 15.31760112 62921
STARLINK-34202          
1 64174U 25113E   26185.65483734  .00062115  00000+0  20883-2 0  9993
2 64174  53.1577 267.7980 0000846  89.7138 270.3959 15.30254776 62974
STARLINK-34231          
1 64175U 25113F   26185.60744348  .00046389  00000+0  14948-2 0  9990
2 64175  53.1606 267.5038 0001074  93.6858 266.4266 15.31754819 62978
STARLINK-34191          
1 64176U 25113G   26185.21355075  .00028877  00000+0  86219-3 0  9996
2 64176  53.1581 267.8934 0001066  87.7020 272.4105 15.34411116 62933
STARLINK-34164          
1 64177U 25113H   26184.95960246  .00019907  00000+0  68215-3 0  9999
2 64177  53.1598 271.2829 0000729  96.1950 263.9134 15.30213996 62866
STARLINK-34227          
1 64178U 25113J   26185.52738016  .00062149  00000+0  20875-2 0  9997
2 64178  53.1578 268.4240 0000933  67.8318 292.2781 15.30284385 62953
