OBJECT_NAME,OBJECT_ID,EPOCH,MEAN_MOTION,ECCENTRICITY,INCLINATION,RA_OF_ASC_NODE,ARG_OF_PERICENTER,MEAN_ANOMALY,EPHEMERIS_TYPE,CLASSIFICATION_TYPE,NORAD_CAT_ID,ELEMENT_SET_NO,REV_AT_EPOCH,BSTAR,MEAN_MOTION_DOT,MEAN_MOTION_DDOT
STARLINK-33924,2025-112D,2026-07-04T20:26:15.375840,15.05672409,.00019586,97.2828,235.2921,100.7096,259.4352,0,U,64149,999,6093,.58765717E-3,.8438E-4,0
STARLINK-34209,2025-112E,2026-07-04T20:50:11.847552,15.05673552,.00031127,97.2797,235.4217,118.3596,241.7946,0,U,64150,999,6094,.46424989E-3,.6653E-4,0
STARLINK-34338,2025-112F,2026-07-04T20:38:14.229024,15.05671195,.00026636,97.2832,235.4338,108.0682,252.0836,0,U,64151,999,6094,.48430572E-3,.6942E-4,0
STARLINK-34348,2025-112G,2026-07-04T02:17:40.792128,15.05663416,.00013541,97.2834,234.6350,114.7640,245.3728,0,U,64152,999,6082,.38242001E-3,.5468E-4,0
STARLINK-34345,2025-112H,2026-07-04T10:04:13.029600,15.05674930,.00005217,97.2883,234.9632,170.5293,189.5945,0,U,64153,999,6087,.42270149E-3,.6052E-4,0
STARLINK-33945,2025-112J,2026-07-04T14:40:12.021600,15.05671159,.00015057,97.2828,243.6429,93.9910,266.1490,0,U,64154,999,6145,.51296948E-3,.7357E-4,0
STARLINK-34346,2025-112K,2026-07-04T09:44:17.246688,15.05665627,.00016163,97.2828,234.9864,108.0608,252.0796,0,U,64155,999,6087,.3613793E-3,.5164E-4,0
STARLINK-34277,2025-112L,2026-07-04T13:43:30.971136,15.05663186,.00017737,97.2830,235.0665,113.4175,246.7239,0,U,64156,999,6089,.75294675E-3,.10828E-3,0
STARLINK-34343,2025-112M,2026-07-04T08:59:34.810080,15.05158713,.00157014,97.6075,236.3315,208.7731,151.2631,0,U,64157,999,6084,.18140883E-2,.25935E-3,0
STARLINK-34166,2025-112N,2026-07-04T20:30:14.762592,15.05669069,.00020373,97.2826,235.2948,130.0872,230.0534,0,U,64158,999,6093,.56688312E-3,.8136E-4,0
STARLINK-34344,2025-112P,2026-07-04T09:08:23.267904,15.05665335,.00018074,97.2822,234.8670,121.4403,238.7002,0,U,64159,999,6086,.35186562E-3,.5026E-4,0
STARLINK-34339,2025-112Q,2026-07-04T02:21:40.034592,15.05663370,.00015458,97.2835,234.6397,129.3194,230.8171,0,U,64160,999,6082,.3274288E-3,.4673E-4,0
STARLINK-34341,2025-112R,2026-07-04T09:56:14.827200,15.05666699,.00018932,97.2831,234.9781,115.6844,244.4579,0,U,64161,999,6087,.39740734E-3,.5685E-4,0
STARLINK-34317,2025-112S,2026-07-04T20:42:13.348800,15.05670477,.0001521,97.2834,235.4374,107.1286,253.0109,0,U,64162,999,6094,.58933858E-3,.8462E-4,0
STARLINK-34340,2025-112T,2026-07-04T09:00:24.719040,15.05664590,.00011707,97.2823,234.8750,134.9346,225.1976,0,U,64163,999,6086,.34403599E-3,.4913E-4,0
STARLINK-34263,2025-112U,2026-07-04T02:25:39.397152,15.05664904,.00021885,97.2832,234.6357,113.9361,246.2096,0,U,64164,999,6082,.29664375E-3,.4228E-4,0
STARLINK-33793,2025-112V,2026-07-04T03:49:23.636640,15.05663803,.00012202,97.2837,234.7106,108.8749,251.2612,0,U,64165,999,6083,.37453309E-3,.5354E-4,0
STARLINK-34313,2025-112W,2026-07-04T10:00:13.953888,15.05665575,.00014049,97.2830,234.9749,116.4679,243.6693,0,U,64166,999,6087,.354004E-3,.5057E-4,0
STARLINK-34309,2025-112X,2026-07-04T09:48:16.358688,15.05665660,.00014034,97.2835,234.9857,94.0836,266.0552,0,U,64167,999,6087,.3303324E-3,.4715E-4,0
STARLINK-34303,2025-112Y,2026-07-04T20:46:12.355392,15.05660744,.00012536,97.2838,235.4374,107.2257,252.9108,0,U,64168,999,6094,.53784982E-3,.7714E-4,0
STARLINK-34175,2025-112Z,2026-07-04T13:59:28.228704,15.05671779,.00013413,97.2822,235.0518,104.2006,255.9371,0,U,64169,999,6089,.46140835E-3,.6611E-4,0
STARLINK-34177,2025-113A,2026-07-04T15:28:21.082080,15.31751859,.00011235,53.1568,267.0338,88.3436,271.7694,0,U,64170,999,6298,.12827174E-2,.39716E-3,0
STARLINK-34228,2025-113B,2026-07-04T15:08:11.093280,15.31747538,.00012093,53.1596,266.9403,89.0095,271.1045,0,U,64171,999,6298,.108747E-2,.33583E-3,0
STARLINK-34233,2025-113C,2026-07-04T14:41:26.484576,15.31760489,.00019628,53.1592,267.5346,81.2404,278.8820,0,U,64172,999,6297,.1151194E-2,.35597E-3,0
STARLINK-34172,2025-113D,2026-07-04T11:53:32.644608,15.31760112,.00015712,53.1598,267.5183,99.1105,261.0074,0,U,64173,999,6292,.14466432E-2,.44881E-3,0
STARLINK-34202,2025-113E,2026-07-04T15:42:57.946176,15.30254776,.00008468,53.1577,267.7980,89.7138,270.3959,0,U,64174,999,6297,.20883365E-2,.62115E-3,0
STARLINK-34231,2025-113F,2026-07-04T14:34:43.116672,15.31754819,.00010748,53.1606,267.5038,93.6858,266.4266,0,U,64175,999,6297,.14947991E-2,.46389E-3,0
STARLINK-34191,2025-113G,2026-07-04T05:07:30.784800,15.34411116,.00010663,53.1581,267.8934,87.7020,272.4105,0,U,64176,999,6293,.86218845E-3,.28877E-3,0
STARLINK-34164,2025-113H,2026-07-03T23:01:49.652544,15.30213996,.00007291,53.1598,271.2829,96.1950,263.9134,0,U,64177,999,6286,.68215361E-3,.19907E-3,0
STARLINK-34227,2025-113J,2026-07-04T12:39:25.645824,15.30284385,.00009332,53.1578,268.4240,67.8318,292.2781,0,U,64178,999,6295,.20875345E-2,.62149E-3,0
